STARLINK-2259
1 18007C 21024AG  21326.17571577  .00804826  00000-0  49258-2 0  3264
2 18007  53.0528  77.5462 0006281 269.6268 322.7293 15.75812425    10
